0 AYAME 2 DEB
1 28999U 80018D   13281.12288857 -.00000111  00000-0  10000-3 0  5602
2 28999 008.3582 045.7193 4340012 300.9242 023.5936 01.75769187 51160
0 AYAME 2 DEB
1 28999U 80018D   13282.26062101 -.00000118  00000-0  10000-3 0  5618
2 28999 008.3596 045.6390 4340018 301.0733 023.5167 01.75769318 51180
0 AYAME 2 DEB
1 28999U 80018D   13285.10492988 -.00000135  00000-0  10000-3 0  5635
2 28999 008.3632 045.4249 4340420 301.5018 023.2907 01.75769525 51235
0 AYAME 2 DEB
1 28999U 80018D   13286.81152919 -.00000136  00000-0  10000-3 0  5643
2 28999 008.3651 045.2936 4340837 301.7655 023.1644 01.75769677 51266
0 AYAME 2 DEB
1 28999U 80018D   13287.38038565 -.00000135  00000-0  10000-3 0  5656
2 28999 008.3649 045.2550 4341717 301.8647 023.1144 01.75769909 51279
0 AYAME 2 DEB
1 28999U 80018D   13288.51811448 -.00000131  00000-0  10000-3 0  5668
2 28999 008.3663 045.1759 4341634 302.0085 023.0357 01.75769924 51296
0 AYAME 2 DEB
1 28999U 80018D   13292.50024455 -.00000125  00000-0  10000-3 0  5670
2 28999 008.3714 044.8784 4340941 302.6078 022.7897 01.75770316 51365
0 AYAME 2 DEB
1 28999U 80018D   13293.06910481 -.00000126  00000-0  10000-3 0  5687
2 28999 008.3724 044.8404 4339845 302.6946 022.7662 01.75771130 51376
0 AYAME 2 DEB
1 28999U 80018D   13294.77567221 -.00000129  00000-0  10000-3 0  5690
2 28999 008.3750 044.7242 4339633 302.9414 022.6364 01.75771437 51404
